NORAD_CAT_ID,OBJECT_NAME,OBJECT_TYPE,EPOCH,MEAN_MOTION,ECCENTRICITY,INCLINATION,RA_OF_ASC_NODE,ARG_OF_PERICENTER,MEAN_ANOMALY,BSTAR,MEAN_MOTION_DOT,MEAN_MOTION_DDOT,TLE_LINE0,TLE_LINE1,TLE_LINE2,SEMIMAJOR_AXIS,PERIOD,APOGEE,PERIGEE,DECAYED
53999.0,STARLINK-5079,PAYLOAD,2024-02-17 12:38:50,15.08843138,0.0001581,53.2209,346.1416,89.3904,270.7269,2.1355e-06,-2.54e-06,0.0,0 STARLINK-5079,1 53999U 22125AM  24048.52697090 -.00000254  00000-0  21355-5 0  9996,2 53999  53.2209 346.1416 0001581  89.3904 270.7269 15.08843138 76064,6917.871,95.437,540.83,538.642,0.0
53999.0,STARLINK-5079,PAYLOAD,2024-02-18 06:08:04,15.08848237,0.0001695,53.2189,342.8676,88.9528,271.1659,0.00012735,1.74e-05,0.0,0 STARLINK-5079,1 53999U 22125AM  24049.25560633  .00001740  00000-0  12735-3 0  9999,2 53999  53.2189 342.8676 0001695  88.9528 271.1659 15.08848237 76248,6917.855,95.437,540.893,538.548,0.0
53999.0,STARLINK-5079,PAYLOAD,2024-02-18 12:29:37,15.08842917,0.0001413,53.2188,341.677,81.48,278.6353,3.4197e-05,2.56e-06,0.0,0 STARLINK-5079,1 53999U 22125AM  24049.52056989  .00000256  00000-0  34197-4 0  9991,2 53999  53.2188 341.6770 0001413  81.4800 278.6353 15.08842917 76217,6917.871,95.437,540.714,538.759,0.0
53999.0,STARLINK-5079,PAYLOAD,2024-02-19 04:23:27,15.0885527,0.0001333,53.2191,338.7056,96.0177,264.0967,0.00014642,2.044e-05,0.0,0 STARLINK-5079,1 53999U 22125AM  24050.18295829  .00002044  00000-0  14642-3 0  9992,2 53999  53.2191 338.7056 0001333  96.0177 264.0967 15.08855270 76389,6917.834,95.437,540.621,538.777,0.0
53999.0,STARLINK-5079,PAYLOAD,2024-02-19 12:20:25,15.08831524,0.0001848,53.2217,337.2201,82.4811,277.6391,-1.5269e-05,-5.31e-06,0.0,0 STARLINK-5079,1 53999U 22125AM  24050.51418043 -.00000531  00000-0 -15269-4 0  9992,2 53999  53.2217 337.2201 0001848  82.4811 277.6391 15.08831524 76364,6917.906,95.438,541.05,538.493,0.0
53999.0,STARLINK-5079,PAYLOAD,2024-02-20 04:14:16,15.08837261,0.0001686,53.2209,334.243,91.5596,268.559,-7.931e-05,-1.55e-05,0.0,0 STARLINK-5079,1 53999U 22125AM  24051.17658005 -.00001550  00000-0 -79310-4 0  9998,2 53999  53.2209 334.2430 0001686  91.5596 268.5590 15.08837261 76462,6917.889,95.438,540.92,538.587,0.0
53999.0,STARLINK-5079,PAYLOAD,2024-02-20 23:18:53,15.08848548,0.0001798,53.2207,330.6768,82.7249,277.3948,0.00012808,1.751e-05,0.0,0 STARLINK-5079,1 53999U 22125AM  24051.97144755  .00001751  00000-0  12808-3 0  9997,2 53999  53.2207 330.6768 0001798  82.7249 277.3948 15.08848548 76583,6917.854,95.437,540.963,538.475,0.0
53999.0,STARLINK-5079,PAYLOAD,2024-02-21 04:05:01,15.08860252,0.0001632,53.22,329.7806,87.1191,272.9988,0.00013996,1.941e-05,0.0,0 STARLINK-5079,1 53999U 22125AM  24052.17015886  .00001941  00000-0  13996-3 0  9992,2 53999  53.2200 329.7806 0001632  87.1191 272.9988 15.08860252 76682,6917.818,95.436,540.812,538.554,0.0
53999.0,STARLINK-5079,PAYLOAD,2024-02-21 12:01:58,15.08849165,0.000119,53.2189,328.2982,95.3306,264.7822,4.7566e-08,-2.87e-06,0.0,0 STARLINK-5079,1 53999U 22125AM  24052.50136598 -.00000287  00000-0  47566-7 0  9990,2 53999  53.2189 328.2982 0001190  95.3306 264.7822 15.08849165 76737,6917.852,95.437,540.541,538.894,0.0
53999.0,STARLINK-5079,PAYLOAD,2024-02-21 21:34:17,15.08833907,0.0001635,53.2197,326.5124,101.1104,259.0072,0.00017547,2.505e-05,0.0,0 STARLINK-5079,1 53999U 22125AM  24052.89881631  .00002505  00000-0  17547-3 0  9993,2 53999  53.2197 326.5124 0001635 101.1104 259.0072 15.08833907 76721,6917.899,95.438,540.895,538.633,0.0
53999.0,STARLINK-5079,PAYLOAD,2024-02-22 03:55:49,15.08844016,0.0001461,53.2182,325.323,110.8575,249.2574,0.0001183,1.595e-05,0.0,0 STARLINK-5079,1 53999U 22125AM  24053.16377128  .00001595  00000-0  11830-3 0  9992,2 53999  53.2182 325.3230 0001461 110.8575 249.2574 15.08844016 76839,6917.868,95.437,540.744,538.722,0.0
53999.0,STARLINK-5079,PAYLOAD,2024-02-22 21:25:04,15.08844827,0.0001726,53.2185,322.0501,124.5869,235.5287,-8.0374e-05,-1.567e-05,0.0,0 STARLINK-5079,1 53999U 22125AM  24053.89240963 -.00001567  00000-0 -80374-4 0  9999,2 53999  53.2185 322.0501 0001726 124.5869 235.5287 15.08844827 76872,6917.866,95.437,540.925,538.537,0.0
53999.0,STARLINK-5079,PAYLOAD,2024-02-23 10:08:09,15.08843734,0.0001555,53.2184,319.6727,106.2375,253.8788,-3.7647e-05,-8.87e-06,0.0,0 STARLINK-5079,1 53999U 22125AM  24054.42233011 -.00000887  00000-0 -37647-4 0  9994,2 53999  53.2184 319.6727 0001555 106.2375 253.8788 15.08843734 77025,6917.869,95.437,540.81,538.658,0.0
53999.0,STARLINK-5079,PAYLOAD,2024-02-23 18:05:06,15.08827354,0.0002074,53.2182,318.1852,86.2492,273.8737,-2.8493e-05,-7.42e-06,0.0,0 STARLINK-5079,1 53999U 22125AM  24054.75354320 -.00000742  00000-0 -28493-4 0  9996,2 53999  53.2182 318.1852 0002074  86.2492 273.8737 15.08827354 77071,6917.919,95.438,541.219,538.349,0.0
53999.0,STARLINK-5079,PAYLOAD,2024-02-23 22:51:15,15.08822931,0.0001587,53.2184,317.2942,99.8925,260.2246,-9.448e-05,-1.791e-05,0.0,0 STARLINK-5079,1 53999U 22125AM  24054.95226560 -.00001791  00000-0 -94480-4 0  9996,2 53999  53.2184 317.2942 0001587  99.8925 260.2246 15.08822931 77039,6917.933,95.439,540.895,538.7,0.0
53999.0,STARLINK-5079,PAYLOAD,2024-02-24 09:58:57,15.08835093,0.0001573,53.2192,315.2168,85.7595,274.3577,3.2797e-05,2.34e-06,0.0,0 STARLINK-5079,1 53999U 22125AM  24055.41594371  .00000234  00000-0  32797-4 0  9998,2 53999  53.2192 315.2168 0001573  85.7595 274.3577 15.08835093 77102,6917.895,95.438,540.849,538.672,0.0
53999.0,STARLINK-5079,PAYLOAD,2024-02-25 09:49:43,15.08857391,0.0001445,53.2177,310.7563,103.4456,256.6697,0.00036624,5.548e-05,0.0,0 STARLINK-5079,1 53999U 22125AM  24056.40953281  .00005548  00000-0  36624-3 0  9992,2 53999  53.2177 310.7563 0001445 103.4456 256.6697 15.08857391 77321,6917.827,95.436,540.692,538.693,0.0
53999.0,STARLINK-5079,PAYLOAD,2024-02-25 22:32:48,15.08850354,0.0001544,53.2176,308.3782,92.1054,268.0115,0.00025141,3.717e-05,0.0,0 STARLINK-5079,1 53999U 22125AM  24056.93945511  .00003717  00000-0  25141-3 0  9995,2 53999  53.2176 308.3782 0001544  92.1054 268.0115 15.08850354 77339,6917.849,95.437,540.782,538.646,0.0
53999.0,STARLINK-5079,PAYLOAD,2024-02-26 01:43:34,15.08854028,0.0001445,53.2174,307.7814,84.7189,275.3968,0.00034162,5.155e-05,0.0,0 STARLINK-5079,1 53999U 22125AM  24057.07193168  .00005155  00000-0  34162-3 0  9995,2 53999  53.2174 307.7814 0001445  84.7189 275.3968 15.08854028 77421,6917.838,95.437,540.702,538.703,0.0
53999.0,STARLINK-5079,PAYLOAD,2024-02-26 16:02:03,15.08839899,0.0001722,53.2155,305.1032,93.4997,266.6192,-0.00013725,-2.472e-05,0.0,0 STARLINK-5079,1 53999U 22125AM  24057.66809713 -.00002472  00000-0 -13725-3 0  9993,2 53999  53.2155 305.1032 0001722  93.4997 266.6192 15.08839899 77517,6917.881,95.438,540.937,538.554,0.0
53999.0,STARLINK-5079,PAYLOAD,2024-02-26 22:23:36,15.08833616,0.0001371,53.2172,303.9168,85.682,274.4329,-6.348e-05,-1.298e-05,0.0,0 STARLINK-5079,1 53999U 22125AM  24057.93305938 -.00001298  00000-0 -63480-4 0  9992,2 53999  53.2172 303.9168 0001371  85.6820 274.4329 15.08833616 77486,6917.9,95.438,540.713,538.816,0.0
53999.0,STARLINK-5079,PAYLOAD,2024-02-27 09:31:18,15.08833879,0.0001356,53.2171,301.8352,84.4475,275.6671,1.9775e-06,-2.56e-06,0.0,0 STARLINK-5079,1 53999U 22125AM  24058.39674195 -.00000256  00000-0  19775-5 0  9998,2 53999  53.2171 301.8352 0001356  84.4475 275.6671 15.08833879 77555,6917.899,95.438,540.702,538.826,0.0
53999.0,STARLINK-5079,PAYLOAD,2024-02-27 22:14:23,15.08836573,0.0001223,53.216,299.4557,85.2531,274.8601,0.00012458,1.695e-05,0.0,0 STARLINK-5079,1 53999U 22125AM  24058.92666337  .00001695  00000-0  12458-3 0  9992,2 53999  53.2160 299.4557 0001223  85.2531 274.8601 15.08836573 77634,6917.891,95.438,540.602,538.91,0.0
53999.0,STARLINK-5079,PAYLOAD,2024-02-28 09:22:05,15.08839753,0.0001237,53.2157,297.3727,87.2851,272.8283,0.00021003,3.056e-05,0.0,0 STARLINK-5079,1 53999U 22125AM  24059.39034388  .00003056  00000-0  21003-3 0  9998,2 53999  53.2157 297.3727 0001237  87.2851 272.8283 15.08839753 77703,6917.881,95.438,540.602,538.89,0.0
53999.0,STARLINK-5079,PAYLOAD,2024-02-28 22:05:10,15.08842552,0.0001306,53.2157,294.9942,84.3557,275.7584,0.00029917,4.477e-05,0.0,0 STARLINK-5079,1 53999U 22125AM  24059.92026488  .00004477  00000-0  29917-3 0  9999,2 53999  53.2157 294.9942 0001306  84.3557 275.7584 15.08842552 77788,6917.873,95.437,540.641,538.834,0.0
53999.0,STARLINK-5079,PAYLOAD,2024-02-29 09:12:52,15.08846506,0.0001308,53.2156,292.9126,83.4185,276.6956,0.00028205,4.205e-05,0.0,0 STARLINK-5079,1 53999U 22125AM  24060.38394311  .00004205  00000-0  28205-3 0  9992,2 53999  53.2156 292.9126 0001308  83.4185 276.6956 15.08846506 77920,6917.861,95.437,540.63,538.821,0.0
53999.0,STARLINK-5079,PAYLOAD,2024-02-29 21:55:57,15.08848672,0.0001365,53.216,290.5336,88.8106,271.3043,0.00021518,3.139e-05,0.0,0 STARLINK-5079,1 53999U 22125AM  24060.91386025  .00003139  00000-0  21518-3 0  9999,2 53999  53.2160 290.5336 0001365  88.8106 271.3043 15.08848672 77933,6917.854,95.437,540.663,538.775,0.0
53999.0,STARLINK-5079,PAYLOAD,2024-03-01 20:11:21,15.08843158,0.0001448,53.2165,286.3708,84.2747,275.841,5.5956e-05,6.03e-06,0.0,0 STARLINK-5079,1 53999U 22125AM  24061.84122109  .00000603  00000-0  55956-4 0  9990,2 53999  53.2165 286.3708 0001448  84.2747 275.8410 15.08843158 78142,6917.871,95.437,540.737,538.734,0.0
53999.0,STARLINK-5079,PAYLOAD,2024-03-02 20:02:08,15.08843437,0.0001397,53.2163,281.9095,96.9204,263.1947,3.4696e-05,2.64e-06,0.0,0 STARLINK-5079,1 53999U 22125AM  24062.83481823  .00000264  00000-0  34696-4 0  9992,2 53999  53.2163 281.9095 0001397  96.9204 263.1947 15.08843437 78225,6917.87,95.437,540.701,538.768,0.0
53999.0,STARLINK-5079,PAYLOAD,2024-03-03 07:09:50,15.08844105,0.0001307,53.2168,279.8265,84.3453,275.7688,0.00010597,1.399e-05,0.0,0 STARLINK-5079,1 53999U 22125AM  24063.29849872  .00001399  00000-0  10597-3 0  9998,2 53999  53.2168 279.8265 0001307  84.3453 275.7688 15.08844105 78362,6917.868,95.437,540.637,538.829,0.0
